CCSDS_OMM_VERS = 2.0
CREATION_DATE  = 
ORIGINATOR     = 

OBJECT_NAME    = ALOS-2
OBJECT_ID      = 2014-029A
CENTER_NAME    = EARTH
REF_FRAME      = TEME
TIME_SYSTEM    = UTC
MEAN_ELEMENT_THEORY = SGP/SGP4

EPOCH          = 2026-03-19T06:06:47.090016
MEAN_MOTION    = 14.79539196
ECCENTRICITY   = .0001463
INCLINATION    = 97.9197
RA_OF_ASC_NODE = 176.7133
ARG_OF_PERICENTER = 93.2898
MEAN_ANOMALY   = 266.8481

EPHEMERIS_TYPE = 0
CLASSIFICATION_TYPE = U
NORAD_CAT_ID   = 39766
ELEMENT_SET_NO = 999
REV_AT_EPOCH   = 63828
BSTAR          = .13959611E-3
MEAN_MOTION_DOT = .993E-5
MEAN_MOTION_DDOT = 0

CCSDS_OMM_VERS = 2.0
CREATION_DATE  = 
ORIGINATOR     = 

OBJECT_NAME    = YAOGAN-29
OBJECT_ID      = 2015-069A
CENTER_NAME    = EARTH
REF_FRAME      = TEME
TIME_SYSTEM    = UTC
MEAN_ELEMENT_THEORY = SGP/SGP4

EPOCH          = 2026-03-19T07:23:32.387136
MEAN_MOTION    = 14.83007210
ECCENTRICITY   = .00012484
INCLINATION    = 98.0129
RA_OF_ASC_NODE = 106.7629
ARG_OF_PERICENTER = 23.9022
MEAN_ANOMALY   = 336.2249

EPHEMERIS_TYPE = 0
CLASSIFICATION_TYPE = U
NORAD_CAT_ID   = 41038
ELEMENT_SET_NO = 999
REV_AT_EPOCH   = 55730
BSTAR          = .10095854E-3
MEAN_MOTION_DOT = .766E-5
MEAN_MOTION_DDOT = 0

CCSDS_OMM_VERS = 2.0
CREATION_DATE  = 
ORIGINATOR     = 

OBJECT_NAME    = ASTRO-H (HITOMI)
OBJECT_ID      = 2016-012A
CENTER_NAME    = EARTH
REF_FRAME      = TEME
TIME_SYSTEM    = UTC
MEAN_ELEMENT_THEORY = SGP/SGP4

EPOCH          = 2026-03-19T06:50:14.614368
MEAN_MOTION    = 15.10065625
ECCENTRICITY   = .00096195
INCLINATION    = 30.9995
RA_OF_ASC_NODE = 294.6255
ARG_OF_PERICENTER = 67.4810
MEAN_ANOMALY   = 292.6846

EPHEMERIS_TYPE = 0
CLASSIFICATION_TYPE = U
NORAD_CAT_ID   = 41337
ELEMENT_SET_NO = 999
REV_AT_EPOCH   = 55368
BSTAR          = .14512394E-3
MEAN_MOTION_DOT = .2517E-4
MEAN_MOTION_DDOT = 0

CCSDS_OMM_VERS = 2.0
CREATION_DATE  = 
ORIGINATOR     = 

OBJECT_NAME    = HXMT (HUIYAN)
OBJECT_ID      = 2017-034A
CENTER_NAME    = EARTH
REF_FRAME      = TEME
TIME_SYSTEM    = UTC
MEAN_ELEMENT_THEORY = SGP/SGP4

EPOCH          = 2026-03-19T02:58:36.587712
MEAN_MOTION    = 15.17590040
ECCENTRICITY   = .00330444
INCLINATION    = 43.0152
RA_OF_ASC_NODE = 324.2187
ARG_OF_PERICENTER = 293.3613
MEAN_ANOMALY   = 66.3761

EPHEMERIS_TYPE = 0
CLASSIFICATION_TYPE = U
NORAD_CAT_ID   = 42758
ELEMENT_SET_NO = 999
REV_AT_EPOCH   = 48397
BSTAR          = .23970894E-3
MEAN_MOTION_DOT = .4732E-4
MEAN_MOTION_DDOT = 0

CCSDS_OMM_VERS = 2.0
CREATION_DATE  = 
ORIGINATOR     = 

OBJECT_NAME    = SAOCOM 1A
OBJECT_ID      = 2018-076A
CENTER_NAME    = EARTH
REF_FRAME      = TEME
TIME_SYSTEM    = UTC
MEAN_ELEMENT_THEORY = SGP/SGP4

EPOCH          = 2026-03-19T06:42:29.168064
MEAN_MOTION    = 14.82150742
ECCENTRICITY   = .00014851
INCLINATION    = 97.8891
RA_OF_ASC_NODE = 266.3166
ARG_OF_PERICENTER = 89.4351
MEAN_ANOMALY   = 270.7033

EPHEMERIS_TYPE = 0
CLASSIFICATION_TYPE = U
NORAD_CAT_ID   = 43641
ELEMENT_SET_NO = 999
REV_AT_EPOCH   = 40278
BSTAR          = .70668107E-4
MEAN_MOTION_DOT = .51E-5
MEAN_MOTION_DDOT = 0

CCSDS_OMM_VERS = 2.0
CREATION_DATE  = 
ORIGINATOR     = 

OBJECT_NAME    = H-2A R/B
OBJECT_ID      = 2018-084L
CENTER_NAME    = EARTH
REF_FRAME      = TEME
TIME_SYSTEM    = UTC
MEAN_ELEMENT_THEORY = SGP/SGP4

EPOCH          = 2026-03-19T03:28:27.542208
MEAN_MOTION    = 15.41735802
ECCENTRICITY   = .00246406
INCLINATION    = 98.8717
RA_OF_ASC_NODE = 297.5568
ARG_OF_PERICENTER = 352.8336
MEAN_ANOMALY   = 7.2550

EPHEMERIS_TYPE = 0
CLASSIFICATION_TYPE = U
NORAD_CAT_ID   = 43682
ELEMENT_SET_NO = 999
REV_AT_EPOCH   = 40723
BSTAR          = .4015335E-3
MEAN_MOTION_DOT = .17053E-3
MEAN_MOTION_DDOT = 0

CCSDS_OMM_VERS = 2.0
CREATION_DATE  = 
ORIGINATOR     = 

OBJECT_NAME    = SAOCOM 1B
OBJECT_ID      = 2020-059A
CENTER_NAME    = EARTH
REF_FRAME      = TEME
TIME_SYSTEM    = UTC
MEAN_ELEMENT_THEORY = SGP/SGP4

EPOCH          = 2026-03-19T05:50:12.704640
MEAN_MOTION    = 14.82144105
ECCENTRICITY   = .00014706
INCLINATION    = 97.8892
RA_OF_ASC_NODE = 265.3787
ARG_OF_PERICENTER = 87.9185
MEAN_ANOMALY   = 272.2196

EPHEMERIS_TYPE = 0
CLASSIFICATION_TYPE = U
NORAD_CAT_ID   = 46265
ELEMENT_SET_NO = 999
REV_AT_EPOCH   = 30016
BSTAR          = -.38061104E-4
MEAN_MOTION_DOT = -.355E-5
MEAN_MOTION_DDOT = 0

CCSDS_OMM_VERS = 2.0
CREATION_DATE  = 
ORIGINATOR     = 

OBJECT_NAME    = CSS (TIANHE)
OBJECT_ID      = 2021-035A
CENTER_NAME    = EARTH
REF_FRAME      = TEME
TIME_SYSTEM    = UTC
MEAN_ELEMENT_THEORY = SGP/SGP4

EPOCH          = 2026-03-19T05:58:10.805088
MEAN_MOTION    = 15.61165238
ECCENTRICITY   = .00058837
INCLINATION    = 41.4668
RA_OF_ASC_NODE = 149.9763
ARG_OF_PERICENTER = 332.6620
MEAN_ANOMALY   = 27.3909

EPHEMERIS_TYPE = 0
CLASSIFICATION_TYPE = U
NORAD_CAT_ID   = 48274
ELEMENT_SET_NO = 999
REV_AT_EPOCH   = 27910
BSTAR          = .22195746E-3
MEAN_MOTION_DOT = .19024E-3
MEAN_MOTION_DDOT = 0

CCSDS_OMM_VERS = 2.0
CREATION_DATE  = 
ORIGINATOR     = 

OBJECT_NAME    = COSMOS 2550
OBJECT_ID      = 2021-056A
CENTER_NAME    = EARTH
REF_FRAME      = TEME
TIME_SYSTEM    = UTC
MEAN_ELEMENT_THEORY = SGP/SGP4

EPOCH          = 2026-03-19T07:09:47.218752
MEAN_MOTION    = 15.33849578
ECCENTRICITY   = .00080904
INCLINATION    = 67.1452
RA_OF_ASC_NODE = 11.8160
ARG_OF_PERICENTER = 270.1459
MEAN_ANOMALY   = 89.8768

EPHEMERIS_TYPE = 0
CLASSIFICATION_TYPE = U
NORAD_CAT_ID   = 48865
ELEMENT_SET_NO = 999
REV_AT_EPOCH   = 26493
BSTAR          = -.35695E-7
MEAN_MOTION_DOT = -.193E-5
MEAN_MOTION_DDOT = 0

CCSDS_OMM_VERS = 2.0
CREATION_DATE  = 
ORIGINATOR     = 

OBJECT_NAME    = CZ-2C R/B
OBJECT_ID      = 2022-058K
CENTER_NAME    = EARTH
REF_FRAME      = TEME
TIME_SYSTEM    = UTC
MEAN_ELEMENT_THEORY = SGP/SGP4

EPOCH          = 2026-03-18T19:58:59.642400
MEAN_MOTION    = 15.54873206
ECCENTRICITY   = .00418728
INCLINATION    = 50.1877
RA_OF_ASC_NODE = 271.2345
ARG_OF_PERICENTER = 239.8584
MEAN_ANOMALY   = 119.8235

EPHEMERIS_TYPE = 0
CLASSIFICATION_TYPE = U
NORAD_CAT_ID   = 52794
ELEMENT_SET_NO = 999
REV_AT_EPOCH   = 21155
BSTAR          = .40983175E-3
MEAN_MOTION_DOT = .28615E-3
MEAN_MOTION_DDOT = 0

CCSDS_OMM_VERS = 2.0
CREATION_DATE  = 
ORIGINATOR     = 

OBJECT_NAME    = CZ-2C R/B
OBJECT_ID      = 2022-132E
CENTER_NAME    = EARTH
REF_FRAME      = TEME
TIME_SYSTEM    = UTC
MEAN_ELEMENT_THEORY = SGP/SGP4

EPOCH          = 2026-03-18T23:30:19.708992
MEAN_MOTION    = 15.62685246
ECCENTRICITY   = .00196684
INCLINATION    = 97.2955
RA_OF_ASC_NODE = 81.5839
ARG_OF_PERICENTER = 61.8989
MEAN_ANOMALY   = 298.4254

EPHEMERIS_TYPE = 0
CLASSIFICATION_TYPE = U
NORAD_CAT_ID   = 54039
ELEMENT_SET_NO = 999
REV_AT_EPOCH   = 19182
BSTAR          = .42931556E-3
MEAN_MOTION_DOT = .38816E-3
MEAN_MOTION_DDOT = 0

CCSDS_OMM_VERS = 2.0
CREATION_DATE  = 
ORIGINATOR     = 

OBJECT_NAME    = GSLV R/B
OBJECT_ID      = 2022-138AN
CENTER_NAME    = EARTH
REF_FRAME      = TEME
TIME_SYSTEM    = UTC
MEAN_ELEMENT_THEORY = SGP/SGP4

EPOCH          = 2026-03-19T06:44:33.673920
MEAN_MOTION    = 14.96836681
ECCENTRICITY   = .00239419
INCLINATION    = 87.3871
RA_OF_ASC_NODE = 163.1520
ARG_OF_PERICENTER = 114.7039
MEAN_ANOMALY   = 245.6689

EPHEMERIS_TYPE = 0
CLASSIFICATION_TYPE = U
NORAD_CAT_ID   = 54149
ELEMENT_SET_NO = 999
REV_AT_EPOCH   = 18536
BSTAR          = .17245785E-3
MEAN_MOTION_DOT = .2015E-4
MEAN_MOTION_DDOT = 0

