ALOS-2                  
1 39766U 14029A   26078.25471169  .00000993  00000+0  13960-3 0  9997
2 39766  97.9197 176.7133 0001463  93.2898 266.8481 14.79539196638282
YAOGAN-29               
1 41038U 15069A   26078.30801374  .00000766  00000+0  10096-3 0  9993
2 41038  98.0129 106.7629 0001248  23.9022 336.2249 14.83007210557306
ASTRO-H (HITOMI)        
1 41337U 16012A   26078.28489137  .00002517  00000+0  14512-3 0  9993
2 41337  30.9995 294.6255 0009619  67.4810 292.6846 15.10065625553684
HXMT (HUIYAN)           
1 42758U 17034A   26078.12403458  .00004732  00000+0  23971-3 0  9991
2 42758  43.0152 324.2187 0033044 293.3613  66.3761 15.17590040483973
SAOCOM 1A               
1 43641U 18076A   26078.27950426  .00000510  00000+0  70668-4 0  9994
2 43641  97.8891 266.3166 0001485  89.4351 270.7033 14.82150742402787
H-2A R/B                
1 43682U 18084L   26078.14476322  .00017053  00000+0  40153-3 0  9997
2 43682  98.8717 297.5568 0024640 352.8336   7.2550 15.41735802407234
SAOCOM 1B               
1 46265U 20059A   26078.24320260 -.00000355  00000+0 -38061-4 0  9997
2 46265  97.8892 265.3787 0001470  87.9185 272.2196 14.82144105300165
CSS (TIANHE)            
1 48274U 21035A   26078.24873617  .00019024  00000+0  22196-3 0  9995
2 48274  41.4668 149.9763 0005883 332.6620  27.3909 15.61165238279108
COSMOS 2550             
1 48865U 21056A   26078.29846318 -.00000193  00000+0 -35695-7 0  9998
2 48865  67.1452  11.8160 0008090 270.1459  89.8768 15.33849578264933
CZ-2C R/B               
1 52794U 22058K   26077.83263475  .00028615  00000+0  40983-3 0  9992
2 52794  50.1877 271.2345 0041872 239.8584 119.8235 15.54873206211556
CZ-2C R/B               
1 54039U 22132E   26077.97939478  .00038816  00000+0  42932-3 0  9997
2 54039  97.2955  81.5839 0019668  61.8989 298.4254 15.62685246191825
GSLV R/B                
1 54149U 22138AN  26078.28094530  .00002015  00000+0  17246-3 0  9993
2 54149  87.3871 163.1520 0023941 114.7039 245.6689 14.96836681185366
